[{"OBJECT_NAME":"SZ-21 MODULE","OBJECT_ID":"2025-246C","EPOCH":"2026-03-06T12:11:03.500160","MEAN_MOTION":15.68252686,"ECCENTRICITY":0.00014339,"INCLINATION":41.4735,"RA_OF_ASC_NODE":222.9439,"ARG_OF_PERICENTER":292.6372,"MEAN_ANOMALY":67.4317,"EPHEMERIS_TYPE":0,"CLASSIFICATION_TYPE":"U","NORAD_CAT_ID":66515,"ELEMENT_SET_NO":999,"REV_AT_EPOCH":1757,"BSTAR":0.00036494457,"MEAN_MOTION_DOT":0.0004195,"MEAN_MOTION_DDOT":0},{"OBJECT_NAME":"SHENZHOU-22","OBJECT_ID":"2025-272A","EPOCH":"2026-03-07T02:12:09.879264","MEAN_MOTION":15.60509219,"ECCENTRICITY":0.0006989,"INCLINATION":41.4664,"RA_OF_ASC_NODE":223.9664,"ARG_OF_PERICENTER":257.1897,"MEAN_ANOMALY":102.8161,"EPHEMERIS_TYPE":0,"CLASSIFICATION_TYPE":"U","NORAD_CAT_ID":66645,"ELEMENT_SET_NO":999,"REV_AT_EPOCH":26879,"BSTAR":0.00030186,"MEAN_MOTION_DOT":0.00025371,"MEAN_MOTION_DDOT":0},{"OBJECT_NAME":"SOYUZ-MS 28","OBJECT_ID":"2025-275A","EPOCH":"2026-03-06T20:49:01.409088","MEAN_MOTION":15.48482048,"ECCENTRICITY":0.0008109,"INCLINATION":51.6318,"RA_OF_ASC_NODE":86.3097,"ARG_OF_PERICENTER":164.5613,"MEAN_ANOMALY":195.5624,"EPHEMERIS_TYPE":0,"CLASSIFICATION_TYPE":"U","NORAD_CAT_ID":66664,"ELEMENT_SET_NO":999,"REV_AT_EPOCH":55589,"BSTAR":0.00016627,"MEAN_MOTION_DOT":8.564e-5,"MEAN_MOTION_DDOT":0},{"OBJECT_NAME":"DUPLEX","OBJECT_ID":"1998-067XS","EPOCH":"2026-03-06T10:32:36.618144","MEAN_MOTION":15.55966204,"ECCENTRICITY":0.00021773,"INCLINATION":51.6289,"RA_OF_ASC_NODE":85.7046,"ARG_OF_PERICENTER":98.7594,"MEAN_ANOMALY":261.3644,"EPHEMERIS_TYPE":0,"CLASSIFICATION_TYPE":"U","NORAD_CAT_ID":66906,"ELEMENT_SET_NO":999,"REV_AT_EPOCH":1462,"BSTAR":0.00045867993,"MEAN_MOTION_DOT":0.00032127,"MEAN_MOTION_DDOT":0},{"OBJECT_NAME":"ISS OBJECT XT","OBJECT_ID":"1998-067XT","EPOCH":"2026-03-07T00:50:02.704128","MEAN_MOTION":15.68270383,"ECCENTRICITY":0.0004689,"INCLINATION":51.625,"RA_OF_ASC_NODE":79.1691,"ARG_OF_PERICENTER":60.7752,"MEAN_ANOMALY":299.3713,"EPHEMERIS_TYPE":0,"CLASSIFICATION_TYPE":"U","NORAD_CAT_ID":66907,"ELEMENT_SET_NO":999,"REV_AT_EPOCH":1476,"BSTAR":0.0013518,"MEAN_MOTION_DOT":0.00157029,"MEAN_MOTION_DDOT":0},{"OBJECT_NAME":"ISS OBJECT XU","OBJECT_ID":"1998-067XU","EPOCH":"2026-03-06T07:58:22.188864","MEAN_MOTION":15.68155385,"ECCENTRICITY":0.0004715,"INCLINATION":51.6249,"RA_OF_ASC_NODE":82.7244,"ARG_OF_PERICENTER":58.9313,"MEAN_ANOMALY":301.2145,"EPHEMERIS_TYPE":0,"CLASSIFICATION_TYPE":"U","NORAD_CAT_ID":66908,"ELEMENT_SET_NO":999,"REV_AT_EPOCH":1465,"BSTAR":0.0013221278,"MEAN_MOTION_DOT":0.00152767,"MEAN_MOTION_DDOT":0},{"OBJECT_NAME":"SILVERSAT","OBJECT_ID":"1998-067XV","EPOCH":"2026-03-07T00:56:12.805440","MEAN_MOTION":15.71023983,"ECCENTRICITY":0.0005422,"INCLINATION":51.6253,"RA_OF_ASC_NODE":78.4433,"ARG_OF_PERICENTER":56.7169,"MEAN_ANOMALY":303.4348,"EPHEMERIS_TYPE":0,"CLASSIFICATION_TYPE":"U","NORAD_CAT_ID":66909,"ELEMENT_SET_NO":999,"REV_AT_EPOCH":1477,"BSTAR":0.0015276,"MEAN_MOTION_DOT":0.00200094,"MEAN_MOTION_DDOT":0},{"OBJECT_NAME":"ISS OBJECT XW","OBJECT_ID":"1998-067XW","EPOCH":"2026-03-07T00:41:09.324960","MEAN_MOTION":15.677005,"ECCENTRICITY":0.0005065,"INCLINATION":51.624,"RA_OF_ASC_NODE":79.1197,"ARG_OF_PERICENTER":69.5355,"MEAN_ANOMALY":290.6184,"EPHEMERIS_TYPE":0,"CLASSIFICATION_TYPE":"U","NORAD_CAT_ID":66910,"ELEMENT_SET_NO":999,"REV_AT_EPOCH":1476,"BSTAR":0.0012471,"MEAN_MOTION_DOT":0.00141218,"MEAN_MOTION_DDOT":0},{"OBJECT_NAME":"ISS OBJECT XX","OBJECT_ID":"1998-067XX","EPOCH":"2026-03-06T09:44:44.607840","MEAN_MOTION":15.73534846,"ECCENTRICITY":0.00070254,"INCLINATION":51.6211,"RA_OF_ASC_NODE":80.9498,"ARG_OF_PERICENTER":63.211,"MEAN_ANOMALY":296.9607,"EPHEMERIS_TYPE":0,"CLASSIFICATION_TYPE":"U","NORAD_CAT_ID":66911,"ELEMENT_SET_NO":999,"REV_AT_EPOCH":1467,"BSTAR":0.0016386152,"MEAN_MOTION_DOT":0.00240114,"MEAN_MOTION_DDOT":0},{"OBJECT_NAME":"ISS OBJECT XY","OBJECT_ID":"1998-067XY","EPOCH":"2026-03-06T10:47:05.015040","MEAN_MOTION":15.62981143,"ECCENTRICITY":0.0003032,"INCLINATION":51.6268,"RA_OF_ASC_NODE":83.5178,"ARG_OF_PERICENTER":70.8849,"MEAN_ANOMALY":289.2473,"EPHEMERIS_TYPE":0,"CLASSIFICATION_TYPE":"U","NORAD_CAT_ID":66912,"ELEMENT_SET_NO":999,"REV_AT_EPOCH":1464,"BSTAR":0.00098520063,"MEAN_MOTION_DOT":0.00091647,"MEAN_MOTION_DDOT":0},{"OBJECT_NAME":"ISS OBJECT XZ","OBJECT_ID":"1998-067XZ","EPOCH":"2026-03-07T00:32:42.960480","MEAN_MOTION":15.51569272,"ECCENTRICITY":0.0009427,"INCLINATION":51.6308,"RA_OF_ASC_NODE":85.0994,"ARG_OF_PERICENTER":176.7585,"MEAN_ANOMALY":183.3468,"EPHEMERIS_TYPE":0,"CLASSIFICATION_TYPE":"U","NORAD_CAT_ID":67683,"ELEMENT_SET_NO":999,"REV_AT_EPOCH":437,"BSTAR":0.00065116,"MEAN_MOTION_DOT":0.00039087,"MEAN_MOTION_DDOT":0},{"OBJECT_NAME":"GXIBA-1","OBJECT_ID":"1998-067YA","EPOCH":"2026-03-07T01:31:56.355744","MEAN_MOTION":15.53815499,"ECCENTRICITY":0.0010893,"INCLINATION":51.6298,"RA_OF_ASC_NODE":84.6245,"ARG_OF_PERICENTER":167.0714,"MEAN_ANOMALY":193.0557,"EPHEMERIS_TYPE":0,"CLASSIFICATION_TYPE":"U","NORAD_CAT_ID":67684,"ELEMENT_SET_NO":999,"REV_AT_EPOCH":438,"BSTAR":0.0012347,"MEAN_MOTION_DOT":0.00081342,"MEAN_MOTION_DDOT":0},{"OBJECT_NAME":"CORAL","OBJECT_ID":"1998-067YB","EPOCH":"2026-03-06T08:59:53.384352","MEAN_MOTION":15.51836923,"ECCENTRICITY":0.00113315,"INCLINATION":51.6303,"RA_OF_ASC_NODE":88.2731,"ARG_OF_PERICENTER":171.0094,"MEAN_ANOMALY":189.11,"EPHEMERIS_TYPE":0,"CLASSIFICATION_TYPE":"U","NORAD_CAT_ID":67685,"ELEMENT_SET_NO":999,"REV_AT_EPOCH":427,"BSTAR":0.00072551429,"MEAN_MOTION_DOT":0.0004409,"MEAN_MOTION_DDOT":0},{"OBJECT_NAME":"ISS OBJECT YC","OBJECT_ID":"1998-067YC","EPOCH":"2026-03-07T01:53:11.859936","MEAN_MOTION":15.5237849,"ECCENTRICITY":0.0007821,"INCLINATION":51.6302,"RA_OF_ASC_NODE":84.7241,"ARG_OF_PERICENTER":140.7599,"MEAN_ANOMALY":219.3959,"EPHEMERIS_TYPE":0,"CLASSIFICATION_TYPE":"U","NORAD_CAT_ID":67686,"ELEMENT_SET_NO":999,"REV_AT_EPOCH":438,"BSTAR":0.00087809,"MEAN_MOTION_DOT":0.00054518,"MEAN_MOTION_DDOT":0},{"OBJECT_NAME":"LEOPARD","OBJECT_ID":"1998-067YD","EPOCH":"2026-03-06T10:35:07.082880","MEAN_MOTION":15.51685674,"ECCENTRICITY":0.00077795,"INCLINATION":51.6311,"RA_OF_ASC_NODE":87.9659,"ARG_OF_PERICENTER":143.5641,"MEAN_ANOMALY":216.588,"EPHEMERIS_TYPE":0,"CLASSIFICATION_TYPE":"U","NORAD_CAT_ID":67687,"ELEMENT_SET_NO":999,"REV_AT_EPOCH":420,"BSTAR":0.00073033201,"MEAN_MOTION_DOT":0.00044085,"MEAN_MOTION_DDOT":0},{"OBJECT_NAME":"ISS OBJECT YE","OBJECT_ID":"1998-067YE","EPOCH":"2026-03-07T01:56:12.938784","MEAN_MOTION":15.52156341,"ECCENTRICITY":0.0007742,"INCLINATION":51.6306,"RA_OF_ASC_NODE":84.7377,"ARG_OF_PERICENTER":141.0752,"MEAN_ANOMALY":219.0796,"EPHEMERIS_TYPE":0,"CLASSIFICATION_TYPE":"U","NORAD_CAT_ID":67688,"ELEMENT_SET_NO":999,"REV_AT_EPOCH":430,"BSTAR":0.00081747,"MEAN_MOTION_DOT":0.00050287,"MEAN_MOTION_DDOT":0},{"OBJECT_NAME":"CREW DRAGON 12","OBJECT_ID":"2026-031A","EPOCH":"2026-03-06T20:49:01.409088","MEAN_MOTION":15.48482048,"ECCENTRICITY":0.0008109,"INCLINATION":51.6318,"RA_OF_ASC_NODE":86.3097,"ARG_OF_PERICENTER":164.5613,"MEAN_ANOMALY":195.5624,"EPHEMERIS_TYPE":0,"CLASSIFICATION_TYPE":"U","NORAD_CAT_ID":67796,"ELEMENT_SET_NO":999,"REV_AT_EPOCH":55577,"BSTAR":0.00016627,"MEAN_MOTION_DOT":8.564e-5,"MEAN_MOTION_DDOT":0}]
